{
    "links": {
        "self": "http://www.neowsapp.com/rest/v1/neo/3648541?api_key=iIulBulltgU6a56xZRHN4H3l9WmuAYTsLGpBGhQ2"
    },
    "id": "3648541",
    "neo_reference_id": "3648541",
    "name": "(2013 SV19)",
    "designation": "2013 SV19",
    "nasa_jpl_url": "http://ssd.jpl.nasa.gov/sbdb.cgi?sstr=3648541",
    "absolute_magnitude_h": 22.0,
    "estimated_diameter": {
        "kilometers": {
            "estimated_diameter_min": 0.1058168859,
            "estimated_diameter_max": 0.2366137501
        },
        "meters": {
            "estimated_diameter_min": 105.8168859331,
            "estimated_diameter_max": 236.6137501138
        },
        "miles": {
            "estimated_diameter_min": 0.0657515442,
            "estimated_diameter_max": 0.1470249225
        },
        "feet": {
            "estimated_diameter_min": 347.1682720448,
            "estimated_diameter_max": 776.2918559233
        }
    },
    "is_potentially_hazardous_asteroid": false,
    "close_approach_data": [
        {
            "close_approach_date": "2013-10-12",
            "close_approach_date_full": "2013-Oct-12 10:21",
            "epoch_date_close_approach": 1381573260000,
            "relative_velocity": {
                "kilometers_per_second": "2.8737218905",
                "kilometers_per_hour": "10345.3988058529",
                "miles_per_hour": "6428.2284968923"
            },
            "miss_distance": {
                "astronomical": "0.2868985168",
                "lunar": "111.6035230352",
                "kilometers": "42919407.019439216",
                "miles": "26668882.8693485408"
            },
            "orbiting_body": "Earth"
        }
    ],
    "orbital_data": {
        "orbit_id": "10",
        "orbit_determination_date": "2017-04-06 08:44:35",
        "first_observation_date": "2013-09-24",
        "last_observation_date": "2013-11-02",
        "data_arc_in_days": 39,
        "observations_used": 38,
        "orbit_uncertainty": "7",
        "minimum_orbit_intersection": ".270684",
        "jupiter_tisserand_invariant": "3.083",
        "epoch_osculation": "2459000.5",
        "eccentricity": ".5481755187683135",
        "semi_major_axis": "2.804480285924764",
        "inclination": ".972684985868619",
        "ascending_node_longitude": "347.5703906969438",
        "orbital_period": "1715.445851935433",
        "perihelion_distance": "1.267132850312448",
        "perihelion_argument": "34.95179574480694",
        "aphelion_distance": "4.34182772153708",
        "perihelion_time": "2458303.195914719550",
        "mean_anomaly": "146.3348262597392",
        "mean_motion": ".2098579792500206",
        "equinox": "J2000",
        "orbit_class": {
            "orbit_class_type": "AMO",
            "orbit_class_description": "Near-Earth asteroid orbits similar to that of 1221 Amor",
            "orbit_class_range": "1.017 AU < q (perihelion) < 1.3 AU"
        }
    },
    "is_sentry_object": false
}